LEMUR-2-MJR092620       
1 58340U 23174CN  26117.47738052  .00013949  00000+0  31470-3 0  9993
2 58340  97.3963 206.6472 0005065 306.8062  53.2721 15.43332362137820
LEMUR-2-NIMBUS2000      
1 58899U 24022A   26117.36889589  .00019166  00000+0  50719-3 0  9999
2 58899  97.4172 326.7812 0007592 305.5864  54.4673 15.38402047124453
LEMUR-2-VALHALLA        
1 58900U 24022B   26117.09562753  .00016393  00000+0  43798-3 0  9991
2 58900  97.4171 326.5190 0008061 301.0155  59.0297 15.38135973124418
LEMUR-2-OBA-NI-JESU     
1 58902U 24022D   26117.12572445  .00218269  00000+0  12489-2 0  9994
2 58902  97.3946 338.0852 0003628 207.2762 152.8315 15.78230799125204
LEMUR-2-CAEL            
1 58903U 24022E   26117.08161459  .00017476  00000+0  44916-3 0  9997
2 58903  97.4156 327.3552 0006290 280.8991  79.1546 15.39329129124474
LEMUR-2-JOHNNYTRUONG    
1 59146U 24043BA  26117.36476703  .00043791  00000+0  61024-3 0  9990
2 59146  97.5330 266.0846 0003735  15.6308 344.5062 15.56802119120125
LEMUR-2-TOMATOKECHUP    
1 60471U 24149D   26117.47166287  .00013674  00000+0  40512-3 0  9991
2 60471  97.3800 199.4316 0003049  80.6280 279.5308 15.34973305 94388
LEMUR-2-STELLA          
1 60533U 24149BT  26117.49505821  .00013143  00000+0  79687-3 0  9999
2 60533  97.6739 199.7754 0001612 130.2559 229.8811 15.10686383 92842
LEMUR-2-MARHISYAM       
1 60536U 24149BW  26117.19280583  .00014353  00000+0  88189-3 0  9995
2 60536  97.6873 199.8672 0000534 302.1479  57.9698 15.10181212 92784
LEMUR-2-AHMED-ASRAR     
1 60576U 24149DN  26117.47277392  .00012251  00000+0  72573-3 0  9999
2 60576  97.6995 202.0510 0003112 147.3565 212.7857 15.11544286 92908
LEMUR-2-LLOYD           
1 60577U 24149DP  26117.50423730  .00011689  00000+0  75814-3 0  9998
2 60577  97.6749 198.6467 0002725 337.0418  23.0687 15.08244613 92755
LEMUR-2-SQUIRRELCOMM    
1 60578U 24149DQ  26117.18946188  .00007392  00000+0  50378-3 0  9994
2 60578  97.6705 198.2861 0005000 211.2046 148.8885 15.06540746 92728
LEMUR-2-SIERRINI        
1 60579U 24149DR  26117.47064922  .00013399  00000+0  83054-3 0  9995
2 60579  97.6837 199.8848 0004570   9.7671 350.3645 15.09869918 92803
LEMUR-2-WILSON          
1 62694U 25009CP  26117.49671456  .00003142  00000+0  29294-3 0  9990
2 62694  97.7028 196.8585 0003207 176.1548 183.9697 14.94938017 69787
LEMUR-2-STAR-FOX        
1 62696U 25009CR  26116.46588515  .00008585  00000+0  66382-3 0  9996
2 62696  97.6923 198.5042 0001292  89.1450 270.9923 15.01738099 69793
LEMUR-2-ARIANNA         
1 62699U 25009CU  26117.46216133  .00010314  00000+0  79793-3 0  9997
2 62699  97.6844 199.3089 0000899  48.8826 311.2476 15.01664140 69943
