[{"OBJECT_NAME":"LEMUR-2-MJR092620","OBJECT_ID":"2023-174CN","EPOCH":"2026-04-27T11:27:25.676928","MEAN_MOTION":15.43332362,"ECCENTRICITY":0.0005065,"INCLINATION":97.3963,"RA_OF_ASC_NODE":206.6472,"ARG_OF_PERICENTER":306.8062,"MEAN_ANOMALY":53.2721,"EPHEMERIS_TYPE":0,"CLASSIFICATION_TYPE":"U","NORAD_CAT_ID":58340,"ELEMENT_SET_NO":999,"REV_AT_EPOCH":13782,"BSTAR":0.0003147,"MEAN_MOTION_DOT":0.00013949,"MEAN_MOTION_DDOT":0},{"OBJECT_NAME":"LEMUR-2-NIMBUS2000","OBJECT_ID":"2024-022A","EPOCH":"2026-04-27T08:51:12.604896","MEAN_MOTION":15.38402047,"ECCENTRICITY":0.0007592,"INCLINATION":97.4172,"RA_OF_ASC_NODE":326.7812,"ARG_OF_PERICENTER":305.5864,"MEAN_ANOMALY":54.4673,"EPHEMERIS_TYPE":0,"CLASSIFICATION_TYPE":"U","NORAD_CAT_ID":58899,"ELEMENT_SET_NO":999,"REV_AT_EPOCH":12445,"BSTAR":0.00050719,"MEAN_MOTION_DOT":0.00019166,"MEAN_MOTION_DDOT":0},{"OBJECT_NAME":"LEMUR-2-VALHALLA","OBJECT_ID":"2024-022B","EPOCH":"2026-04-27T02:17:42.218592","MEAN_MOTION":15.38135973,"ECCENTRICITY":0.00080612,"INCLINATION":97.4171,"RA_OF_ASC_NODE":326.519,"ARG_OF_PERICENTER":301.0155,"MEAN_ANOMALY":59.0297,"EPHEMERIS_TYPE":0,"CLASSIFICATION_TYPE":"U","NORAD_CAT_ID":58900,"ELEMENT_SET_NO":999,"REV_AT_EPOCH":12441,"BSTAR":0.00043798146,"MEAN_MOTION_DOT":0.00016393,"MEAN_MOTION_DDOT":0},{"OBJECT_NAME":"LEMUR-2-OBA-NI-JESU","OBJECT_ID":"2024-022D","EPOCH":"2026-04-27T03:01:02.592480","MEAN_MOTION":15.78230799,"ECCENTRICITY":0.00036289,"INCLINATION":97.3946,"RA_OF_ASC_NODE":338.0852,"ARG_OF_PERICENTER":207.2762,"MEAN_ANOMALY":152.8315,"EPHEMERIS_TYPE":0,"CLASSIFICATION_TYPE":"U","NORAD_CAT_ID":58902,"ELEMENT_SET_NO":999,"REV_AT_EPOCH":12520,"BSTAR":0.0012488775,"MEAN_MOTION_DOT":0.00218269,"MEAN_MOTION_DDOT":0},{"OBJECT_NAME":"LEMUR-2-CAEL","OBJECT_ID":"2024-022E","EPOCH":"2026-04-27T01:57:31.500576","MEAN_MOTION":15.39329129,"ECCENTRICITY":0.00062901,"INCLINATION":97.4156,"RA_OF_ASC_NODE":327.3552,"ARG_OF_PERICENTER":280.8991,"MEAN_ANOMALY":79.1546,"EPHEMERIS_TYPE":0,"CLASSIFICATION_TYPE":"U","NORAD_CAT_ID":58903,"ELEMENT_SET_NO":999,"REV_AT_EPOCH":12447,"BSTAR":0.00044915721,"MEAN_MOTION_DOT":0.00017476,"MEAN_MOTION_DDOT":0},{"OBJECT_NAME":"LEMUR-2-JOHNNYTRUONG","OBJECT_ID":"2024-043BA","EPOCH":"2026-04-27T08:45:15.871392","MEAN_MOTION":15.56802119,"ECCENTRICITY":0.0003735,"INCLINATION":97.533,"RA_OF_ASC_NODE":266.0846,"ARG_OF_PERICENTER":15.6308,"MEAN_ANOMALY":344.5062,"EPHEMERIS_TYPE":0,"CLASSIFICATION_TYPE":"U","NORAD_CAT_ID":59146,"ELEMENT_SET_NO":999,"REV_AT_EPOCH":12012,"BSTAR":0.00061024,"MEAN_MOTION_DOT":0.00043791,"MEAN_MOTION_DDOT":0},{"OBJECT_NAME":"LEMUR-2-TOMATOKECHUP","OBJECT_ID":"2024-149D","EPOCH":"2026-04-27T11:19:11.671968","MEAN_MOTION":15.34973305,"ECCENTRICITY":0.0003049,"INCLINATION":97.38,"RA_OF_ASC_NODE":199.4316,"ARG_OF_PERICENTER":80.628,"MEAN_ANOMALY":279.5308,"EPHEMERIS_TYPE":0,"CLASSIFICATION_TYPE":"U","NORAD_CAT_ID":60471,"ELEMENT_SET_NO":999,"REV_AT_EPOCH":9438,"BSTAR":0.00040512,"MEAN_MOTION_DOT":0.00013674,"MEAN_MOTION_DDOT":0},{"OBJECT_NAME":"LEMUR-2-STELLA","OBJECT_ID":"2024-149BT","EPOCH":"2026-04-27T11:52:53.029344","MEAN_MOTION":15.10686383,"ECCENTRICITY":0.0001612,"INCLINATION":97.6739,"RA_OF_ASC_NODE":199.7754,"ARG_OF_PERICENTER":130.2559,"MEAN_ANOMALY":229.8811,"EPHEMERIS_TYPE":0,"CLASSIFICATION_TYPE":"U","NORAD_CAT_ID":60533,"ELEMENT_SET_NO":999,"REV_AT_EPOCH":9284,"BSTAR":0.00079687,"MEAN_MOTION_DOT":0.00013143,"MEAN_MOTION_DDOT":0},{"OBJECT_NAME":"LEMUR-2-MARHISYAM","OBJECT_ID":"2024-149BW","EPOCH":"2026-04-27T04:37:38.423712","MEAN_MOTION":15.10181212,"ECCENTRICITY":5.341e-5,"INCLINATION":97.6873,"RA_OF_ASC_NODE":199.8672,"ARG_OF_PERICENTER":302.1479,"MEAN_ANOMALY":57.9698,"EPHEMERIS_TYPE":0,"CLASSIFICATION_TYPE":"U","NORAD_CAT_ID":60536,"ELEMENT_SET_NO":999,"REV_AT_EPOCH":9278,"BSTAR":0.00088188666,"MEAN_MOTION_DOT":0.00014353,"MEAN_MOTION_DDOT":0},{"OBJECT_NAME":"LEMUR-2-AHMED-ASRAR","OBJECT_ID":"2024-149DN","EPOCH":"2026-04-27T11:20:47.666688","MEAN_MOTION":15.11544286,"ECCENTRICITY":0.0003112,"INCLINATION":97.6995,"RA_OF_ASC_NODE":202.051,"ARG_OF_PERICENTER":147.3565,"MEAN_ANOMALY":212.7857,"EPHEMERIS_TYPE":0,"CLASSIFICATION_TYPE":"U","NORAD_CAT_ID":60576,"ELEMENT_SET_NO":999,"REV_AT_EPOCH":9290,"BSTAR":0.00072573,"MEAN_MOTION_DOT":0.00012251,"MEAN_MOTION_DDOT":0},{"OBJECT_NAME":"LEMUR-2-LLOYD","OBJECT_ID":"2024-149DP","EPOCH":"2026-04-27T12:06:06.102720","MEAN_MOTION":15.08244613,"ECCENTRICITY":0.0002725,"INCLINATION":97.6749,"RA_OF_ASC_NODE":198.6467,"ARG_OF_PERICENTER":337.0418,"MEAN_ANOMALY":23.0687,"EPHEMERIS_TYPE":0,"CLASSIFICATION_TYPE":"U","NORAD_CAT_ID":60577,"ELEMENT_SET_NO":999,"REV_AT_EPOCH":9275,"BSTAR":0.00075814,"MEAN_MOTION_DOT":0.00011689,"MEAN_MOTION_DDOT":0},{"OBJECT_NAME":"LEMUR-2-SQUIRRELCOMM","OBJECT_ID":"2024-149DQ","EPOCH":"2026-04-27T04:32:49.506432","MEAN_MOTION":15.06540746,"ECCENTRICITY":0.00050004,"INCLINATION":97.6705,"RA_OF_ASC_NODE":198.2861,"ARG_OF_PERICENTER":211.2046,"MEAN_ANOMALY":148.8885,"EPHEMERIS_TYPE":0,"CLASSIFICATION_TYPE":"U","NORAD_CAT_ID":60578,"ELEMENT_SET_NO":999,"REV_AT_EPOCH":9272,"BSTAR":0.00050377645,"MEAN_MOTION_DOT":7.392e-5,"MEAN_MOTION_DDOT":0},{"OBJECT_NAME":"LEMUR-2-SIERRINI","OBJECT_ID":"2024-149DR","EPOCH":"2026-04-27T11:17:44.092608","MEAN_MOTION":15.09869918,"ECCENTRICITY":0.000457,"INCLINATION":97.6837,"RA_OF_ASC_NODE":199.8848,"ARG_OF_PERICENTER":9.7671,"MEAN_ANOMALY":350.3645,"EPHEMERIS_TYPE":0,"CLASSIFICATION_TYPE":"U","NORAD_CAT_ID":60579,"ELEMENT_SET_NO":999,"REV_AT_EPOCH":9280,"BSTAR":0.00083054,"MEAN_MOTION_DOT":0.00013399,"MEAN_MOTION_DDOT":0},{"OBJECT_NAME":"LEMUR-2-WILSON","OBJECT_ID":"2025-009CP","EPOCH":"2026-04-27T11:55:16.137984","MEAN_MOTION":14.94938017,"ECCENTRICITY":0.0003207,"INCLINATION":97.7028,"RA_OF_ASC_NODE":196.8585,"ARG_OF_PERICENTER":176.1548,"MEAN_ANOMALY":183.9697,"EPHEMERIS_TYPE":0,"CLASSIFICATION_TYPE":"U","NORAD_CAT_ID":62694,"ELEMENT_SET_NO":999,"REV_AT_EPOCH":6978,"BSTAR":0.00029294,"MEAN_MOTION_DOT":3.142e-5,"MEAN_MOTION_DDOT":0},{"OBJECT_NAME":"LEMUR-2-STAR-FOX","OBJECT_ID":"2025-009CR","EPOCH":"2026-04-26T11:10:52.476960","MEAN_MOTION":15.01738099,"ECCENTRICITY":0.00012928,"INCLINATION":97.6923,"RA_OF_ASC_NODE":198.5042,"ARG_OF_PERICENTER":89.145,"MEAN_ANOMALY":270.9923,"EPHEMERIS_TYPE":0,"CLASSIFICATION_TYPE":"U","NORAD_CAT_ID":62696,"ELEMENT_SET_NO":999,"REV_AT_EPOCH":6979,"BSTAR":0.00066381705,"MEAN_MOTION_DOT":8.585e-5,"MEAN_MOTION_DDOT":0},{"OBJECT_NAME":"LEMUR-2-ARIANNA","OBJECT_ID":"2025-009CU","EPOCH":"2026-04-27T11:05:30.738912","MEAN_MOTION":15.0166414,"ECCENTRICITY":8.99e-5,"INCLINATION":97.6844,"RA_OF_ASC_NODE":199.3089,"ARG_OF_PERICENTER":48.8826,"MEAN_ANOMALY":311.2476,"EPHEMERIS_TYPE":0,"CLASSIFICATION_TYPE":"U","NORAD_CAT_ID":62699,"ELEMENT_SET_NO":999,"REV_AT_EPOCH":6994,"BSTAR":0.00079793,"MEAN_MOTION_DOT":0.00010314,"MEAN_MOTION_DDOT":0}]
